AMC-11 (GE-11)          
1 28252U 04017A   17116.47647660  .00000059  00000-0  00000-0 0  9991
2 28252   0.0239 322.5616 0002649  78.5828 214.0453  1.00272859 47227
INTELSAT 10-02          
1 28358U 04022A   17116.86289420 -.00000022  00000-0  00000-0 0  9994
2 28358   0.0108 186.9652 0000539  85.4396 252.3011  1.00271022 47174
APSTAR 5 (TELSTAR 18)   
1 28364U 04024A   17116.86438101 -.00000305  00000-0  00000-0 0  9999
2 28364   0.0729  91.8504 0003121 317.1434 255.2093  1.00269994 47142
ANIK F2                 
1 28378U 04027A   17116.52007074 -.00000060  00000-0  00000-0 0  9999
2 28378   0.0274 350.7451 0000252 239.1185  60.9989  1.00271547 46879
AMAZONAS 1              
1 28393U 04031A   17116.27479764 -.00000255  00000-0  00000-0 0  9998
2 28393   1.6442  83.9057 0004040 320.5373 232.7782  1.00272026 46592
AMC-15                  
1 28446U 04041A   17116.53111557 -.00000099  00000-0  00000-0 0  9996
2 28446   0.0648  72.1766 0001831 317.4469 271.2291  1.00271072 45913
AMC-16                  
1 28472U 04048A   17116.44951230 -.00000216  00000-0  00000-0 0  9993
2 28472   0.0396  46.4248 0002778   8.5788 236.4706  1.00271880 45331
NSS-10 (AMC-12)         
1 28526U 05003A   17116.27479764 -.00000260  00000-0  00000-0 0  9992
2 28526   0.0250 303.5928 0002629  88.2564 244.0984  1.00270873 44832
XTAR-EUR                
1 28542U 05005A   17116.32364064  .00000141  00000-0  00000-0 0  9991
2 28542   0.0481  87.7053 0002645 301.3721 330.9466  1.00271661 44700
XM-3 (RHYTHM)           
1 28626U 05008A   17116.44951331 -.00000215  00000-0  00000-0 0  9992
2 28626   0.0103  16.0033 0000608 260.9273  14.4116  1.00268436 44584
INMARSAT 4-F1           
1 28628U 05009A   17115.03950024 -.00000269  00000-0  00000-0 0  9996
2 28628   2.8700  11.2785 0003130  30.0250 329.6658  1.00272030 44187
APSTAR 6                
1 28638U 05012A   17116.89301477 -.00000329  00000-0  00000-0 0  9995
2 28638   0.0055 155.4824 0002433 261.8058 253.2880  1.00272424 68936
SPACEWAY 1              
1 28644U 05015A   17116.61722965 -.00000113  00000-0  00000-0 0  9995
2 28644   0.0131 157.2085 0000368 144.9167  31.9654  1.00271506 44039
DIRECTV 8               
1 28659U 05019A   17115.68611063 -.00000124  00000-0  00000-0 0  9999
2 28659   0.0131 263.6314 0003140 134.2719 322.1188  1.00269919 43703
GALAXY 28 (G-28)        
1 28702U 05022A   17116.45628649 -.00000195  00000-0  00000-0 0  9994
2 28702   0.0108 230.4879 0001648 162.3943 257.0163  1.00269052 43343
EXPRESS-AM3             
1 28707U 05023A   17116.96723265 -.00000333  00000-0  00000-0 0  9990
2 28707   0.0014 147.7937 0001234 265.3442 253.2130  1.00270053 43376
THAICOM 4               
1 28786U 05028A   17116.63973097 -.00000373  00000-0  00000-0 0  9990
2 28786   0.0122 259.5464 0001925 128.3573 176.7099  1.00267537 18806
GALAXY 14 (G-14)        
1 28790U 05030A   17115.14493573  .00000028  00000-0  00000-0 0  9995
2 28790   0.0565  82.0232 0002174 300.9471 117.5448  1.00271011 42839
ANIK F1R                
1 28868U 05036A   17116.62526189 -.00000085  00000-0  00000-0 0  9995
2 28868   0.0576  70.1514 0002887 324.9126 297.5436  1.00271698 42671
GALAXY 15 (G-15)        
1 28884U 05041A   17116.46830865  .00000069  00000-0  00000-0 0  9991
2 28884   0.0219  95.1817 0001573 313.3474 201.7181  1.00272719 42146
SYRACUSE 3A             
1 28885U 05041B   17116.75952051  .00000118  00000-0  00000-0 0  9991
2 28885   0.0154 306.2116 0002993  90.9456 138.1901  1.00271905 42259
INMARSAT 4-F2           
1 28899U 05044A   17116.25675815  .00000001  00000-0  00000-0 0  9995
2 28899   2.5643  11.1670 0002428  30.8728 328.7300  1.00273523 42044
TELKOM 2                
1 28902U 05046A   17112.60952086 -.00000371  00000-0  00000-0 0  9996
2 28902   0.0266 242.9679 0000869 181.3340 123.8784  1.00267947 41722
SPACEWAY 2              
1 28903U 05046B   17116.53963355 -.00000136  00000-0  00000-0 0  9993
2 28903   0.0044  77.6547 0000162 136.8770  95.3888  1.00268076 42017
INSAT-4A                
1 28911U 05049A   17116.17395585 -.00000175  00000-0  00000-0 0  9992
2 28911   0.1043  94.1062 0003408 233.5604  32.3220  1.00271444 12245
METEOSAT-9 (MSG-2)      
1 28912U 05049B   17116.86309434  .00000051  00000-0  00000-0 0  9999
2 28912   2.1041  70.7990 0000565 127.7863 336.4190  1.00269451 41564
EUTELSAT 172A (GE-23)   
1 28924U 05052A   17116.76714543 -.00000017  00000-0  00000-0 0  9999
2 28924   0.0702   8.8728 0005751  26.8660 267.3708  1.00271546 18878
ECHOSTAR 10             
1 28935U 06003A   17116.94352260 -.00000066  00000-0  00000-0 0  9996
2 28935   0.0621  73.8816 0001537 347.6842  23.0315  1.00270826 41006
HIMAWARI-7 (MTSAT-2)    
1 28937U 06004A   17116.89268187 -.00000253  00000-0  00000-0 0  9995
2 28937   0.0674  92.9689 0003466 305.1124 283.3703  1.00274371 41002
SPAINSAT                
1 28945U 06007A   17116.48704057 -.00000226  00000-0  00000-0 0  9993
2 28945   0.0176 215.0568 0002241 177.4518 327.5144  1.00271558 40754
EUTELSAT HOT BIRD 13E   
1 28946U 06007B   17116.36797161  .00000076  00000-0  00000-0 0  9991
2 28946   0.0624 261.3722 0002825 184.6437 274.0255  1.00269064 40823
JCSAT-5A                
1 29045U 06010A   17116.86924317 -.00000339  00000-0  00000-0 0  9999
2 29045   0.0130 272.6882 0001872 153.0843 234.2532  1.00270551 40469
ASTRA 1KR               
1 29055U 06012A   17116.72271417  .00000109  00000-0  00000-0 0  9997
2 29055   0.0494 276.5435 0001087  46.0547 171.6592  1.00270059 40272
GOES 13                 
1 29155U 06018A   17115.61395121 -.00000260  00000-0  00000-0 0  9999
2 29155   0.2906 272.8981 0004805 152.4726 294.6892  1.00276382  9910
EUTELSAT 113 WEST A     
1 29162U 06020A   17115.71974975 -.00000047  00000-0  00000-0 0  9994
2 29162   0.0114 322.6507 0002953  77.9587 319.4221  1.00272827 39996
THAICOM 5               
1 29163U 06020B   17115.42827171 -.00000130  00000-0  00000-0 0  9991
2 29163   0.0169 254.4293 0003476 119.9375  71.9419  1.00269434 40007
GALAXY 16 (G-16)        
1 29236U 06023A   17116.53963139 -.00000138  00000-0  00000-0 0  9991
2 29236   0.0157 250.5229 0002735 159.1113 260.3606  1.00274116 39782
EUTELSAT HOT BIRD 13B   
1 29270U 06032A   17116.72271417  .00000076  00000-0  00000-0 0  9991
2 29270   0.0872 322.3933 0005187  57.0168 108.6755  1.00269616 13852
JCSAT-3A                
1 29272U 06033A   17116.86924317 -.00000356  00000-0  00000-0 0  9995
2 29272   0.0187 264.2194 0001645 147.0514 244.7129  1.00268578 39284
SYRACUSE 3B             
1 29273U 06033B   17116.63382632 -.00000054  00000-0  00000-0 0  9994
2 29273   0.0373  92.9216 0004678 287.2037  57.6733  1.00271957 39231
KOREASAT 5 (MUGUNGWHA 5)
1 29349U 06034A   17116.87410788 -.00000369  00000-0  00000-0 0  9998
2 29349   0.0033 244.3302 0000741 229.6523 168.8201  1.00270665 39166
ZHONGXING-22A           
1 29398U 06038A   17116.89546418 -.00000328  00000-0  00000-0 0  9993
2 29398   5.7010  58.0709 0001848 259.1180 322.0033  1.00269479 38936
DIRECTV 9S              
1 29494U 06043A   17116.53738616 -.00000124  00000-0  00000-0 0  9994
2 29494   0.0120 234.0801 0003162 157.6434 275.3619  1.00272394 38623
OPTUS D1                
1 29495U 06043B   17116.76685575 -.00000122  00000-0  00000-0 0  9993
2 29495   0.0565  82.5156 0003254 311.1954 257.3094  1.00271192 38646
XM-4 (BLUES)            
1 29520U 06049A   17116.91253833 -.00000034  00000-0  00000-0 0  9995
2 29520   0.0033 320.5211 0000106 164.8571 303.0015  1.00271572 18005
BADR-4                  
1 29526U 06051A   17116.76924449  .00000133  00000-0  00000-0 0  9994
2 29526   0.0530 334.1920 0005050  23.0474 160.6280  1.00270851 38419
FENGYUN 2D              
1 29640U 06053A   17116.88824844 -.00000369  00000-0  10000-3 0  9990
2 29640   4.3588  64.6264 0004850 342.3002 251.7254  1.00277236 38083
WILDBLUE-1              
1 29643U 06054A   17116.52007058 -.00000059  00000-0  00000-0 0  9997
2 29643   0.0397  98.9502 0001469 294.5176 257.2923  1.00270950 38063
AMC-18                  
1 29644U 06054B   17116.53111487 -.00000099  00000-0  00000-0 0  9995
2 29644   0.0483  75.5930 0002353 320.6045 264.7607  1.00270950 38078
MEASAT-3                
1 29648U 06056A   17116.84216362 -.00000253  00000-0  00000-0 0  9995
2 29648   0.0614 112.2762 0002401 340.0070 157.4408  1.00272071 38082
INSAT-4B                
1 30793U 07007A   17115.51009687 -.00000268  00000-0  00000-0 0  9994
2 30793   0.1151  95.4375 0006772 328.2726  67.1444  1.00272146 37073
SKYNET 5A               
1 30794U 07007B   17116.84216362 -.00000283  00000-0  00000-0 0  9999
2 30794   0.0703  14.2271 0003534  23.7335 215.4575  1.00272748 37224
ANIK F3                 
1 31102U 07009A   17116.50708953 -.00000011  00000-0  00000-0 0  9999
2 31102   0.0136 268.7690 0001779 126.3695 243.4030  1.00272541 36853
ASTRA 1L                
1 31306U 07016A   17116.76924449  .00000108  00000-0  00000-0 0  9997
2 31306   0.0672 305.9925 0003508  43.6450 161.4269  1.00269438 36563
GALAXY 17 (G-17)        
1 31307U 07016B   17116.41263647 -.00000185  00000-0  00000-0 0  9992
2 31307   0.0462  47.2878 0003201 355.0714 229.8023  1.00272389 36596
ZHONGXING-6B            
1 31800U 07031A   17116.87410788 -.00000373  00000-0  00000-0 0  9996
2 31800   0.0174 289.4023 0002203 101.4470 254.4045  1.00268553 35998
DIRECTV 10              
1 31862U 07032A   17115.69153450 -.00000112  00000-0  00000-0 0  9995
2 31862   0.0134 292.4349 0000205 319.1356 108.4367  1.00271769 35929
SPACEWAY 3              
1 32018U 07036A   17116.37637499 -.00000162  00000-0  00000-0 0  9994
2 32018   0.0185  65.5277 0000254 179.1949  10.3935  1.00271270 35642
BSAT-3A                 
1 32019U 07036B   17116.09955325 -.00000360  00000-0  00000-0 0  9995
2 32019   0.0437 161.2939 0000779  92.1372 106.5697  1.00271490 17027
